ESTCUBE 1               
1 39161U 13021C   21361.80429601  .00000768  00000+0  12828-3 0  9994
2 39161  97.9243  78.4225 0008225 250.2386 109.7903 14.72619337464205
FENGYUN 3C              
1 39260U 13052A   21361.83451266  .00000053  00000+0  47602-4 0  9999
2 39260  98.4760  33.4588 0012022  53.1899 307.0368 14.15891457427633
CASSIOPE                
1 39265U 13055A   21361.89100561  .00009382  00000+0  25438-3 0  9998
2 39265  80.9665  88.6796 0639773 105.1269 262.1571 14.34680107427702
ZACUBE-1 (TSHEPISOSAT)  
1 39417U 13066B   21361.93935906  .00001273  00000+0  16359-3 0  9996
2 39417  97.6155 336.4949 0056989 246.4153 113.1069 14.81747371437726
CINEMA-3 (KHUSAT-2)     
1 39426U 13066L   21361.81475918  .00000727  00000+0  11976-3 0  9998
2 39426  97.7810 304.4434 0105240  65.9641 295.2537 14.69810921434053
TRITON-1                
1 39427U 13066M   21361.78291323  .00000873  00000+0  14461-3 0  9995
2 39427  97.7981 300.2826 0114343  93.1876 268.2419 14.68434918433582
DELFI-N3XT              
1 39428U 13066N   21361.77348088  .00001321  00000+0  21289-3 0  9991
2 39428  97.8011 298.7828 0120410 106.2030 255.2465 14.68320497433337
GOMX-1                  
1 39430U 13066Q   21361.90840042  .00000896  00000+0  16992-3 0  9997
2 39430  97.8159 273.8741 0149038 225.2303 133.6695 14.59792422431268
BRITE-PL1 (LEM)         
1 39431U 13066R   21361.84389029  .00000265  00000+0  65934-4 0  9995
2 39431  97.7216 225.5680 0202831  40.5228 321.0869 14.47205026427541
ICUBE-1                 
1 39432U 13066S   21361.77025028  .00001597  00000+0  16455-3 0  9996
2 39432  97.4691   9.5725 0032999 116.6107 243.8499 14.91175616439119
HUMSAT-D                
1 39433U 13066T   21361.59520949  .00002587  00000+0  24983-3 0  9994
2 39433  97.4587  16.7390 0031796  95.2051 265.2799 14.93286107440748
VELOX-PII               
1 39438U 13066Y   21361.88348576  .00001246  00000+0  17154-3 0  9998
2 39438  97.6692 327.3316 0068781 295.9559  63.4577 14.78410745435653
FIRST-MOVE              
1 39439U 13066Z   21361.88700275  .00002729  00000+0  33051-3 0  9998
2 39439  97.6190 338.3511 0062775 243.3400 116.1377 14.83047907436618
CUBEBUG-2 (LO-74)       
1 39440U 13066AA  21361.88724495  .00001604  00000+0  22628-3 0  9999
2 39440  97.7037 321.9785 0078893 328.9971  30.6595 14.76460203434961
NEE-02 KRYSAOR          
1 39441U 13066AB  21361.88767180  .00001138  00000+0  16658-3 0  9996
2 39441  97.7142 319.2437 0080851 341.3764  18.4491 14.75338999434738
FUNCUBE-1 (AO-73)       
1 39444U 13066AE  21361.93761807  .00001491  00000+0  18629-3 0  9997
2 39444  97.6047 338.8838 0056080 235.4419 124.1495 14.82700508436102
HINCUBE                 
1 39445U 13066AF  21361.90038433  .00001431  00000+0  17977-3 0  9996
2 39445  97.6062 338.6843 0056098 237.6270 121.9507 14.82523866436044
UWE-3                   
1 39446U 13066AG  21361.86603502  .00001419  00000+0  19171-3 0  9991
2 39446  97.6628 328.6731 0068035 289.2597  70.1264 14.79004536435090
AIST-1 (RS-41)          
1 39492U 13078C   21361.80737630  .00000677  00000+0  70666-4 0  9991
2 39492  82.4191  40.8198 0018842 319.2582  40.7228 14.88149340434250
SPROUT                  
1 39770U 14029E   21361.91816195  .00004051  00000+0  43553-3 0  9997
2 39770  97.9309 113.2637 0007413 294.6537  65.3874 14.89082290412125
UNISAT-6                
1 40012U 14033C   21361.78319204  .00000778  00000+0  12138-3 0  9994
2 40012  97.6617 193.9360 0057834 356.2437   3.8330 14.74482465404687
BUGSAT-1 (TITA)         
1 40014U 14033E   21361.94221863  .00001597  00000+0  14690-3 0  9992
2 40014  98.1322 348.5663 0029743 244.0243 115.7912 14.96019085410492
DUCHIFAT-1              
1 40021U 14033M   21361.81360720  .00002194  00000+0  22340-3 0  9997
2 40021  97.9935 304.2895 0011260 245.0031 115.0018 14.91753060409103
NANOSATC-BR1            
1 40024U 14033Q   21361.83237079  .00002133  00000+0  22268-3 0  9994
2 40024  97.9690 298.5207 0010662 251.5813 108.4245 14.90783727408403
QB50P1                  
1 40025U 14033R   21361.81631463  .00001581  00000+0  17087-3 0  9997
2 40025  97.9477 293.1472 0010872 262.2641  97.7342 14.89728471408202
DTUSAT-2                
1 40030U 14033W   21361.74440267  .00001485  00000+0  16276-3 0  9997
2 40030  97.9276 289.0453 0010347 258.6903 101.3151 14.89253544408085
QB50P2                  
1 40032U 14033Y   21361.77996260  .00001428  00000+0  15690-3 0  9997
2 40032  97.9282 289.0909 0010295 259.5057 100.5000 14.89216810408069
POLYITAN-1              
1 40042U 14033AJ  21361.82291261  .00002240  00000+0  24038-3 0  9992
2 40042  97.9572 294.1431 0013114 252.7990 107.1792 14.89595730408098
TIGRISAT                
1 40043U 14033AK  21361.50871986  .00000630  00000+0  99118-4 0  9999
2 40043  97.6573 195.0371 0059507 354.7430   5.3148 14.74669098404281
AISAT                   
1 40054U 14034B   21361.88696710  .00002200  00000+0  30665-3 0  9999
2 40054  98.3406 161.7563 0013436 141.2642 218.9533 14.78773458404116
CANX-4                  
1 40055U 14034C   21361.87860553  .00000605  00000+0  97536-4 0  9995
2 40055  98.3311 148.5196 0014212 179.2147 180.9086 14.75159710403421
CANX-5                  
1 40056U 14034D   21361.88439077  .00000603  00000+0  97242-4 0  9992
2 40056  98.3311 148.5087 0014230 179.4917 180.6308 14.75152821394236
VELOX-I                 
1 40057U 14034E   21361.71074198  .00001690  00000+0  23930-3 0  9993
2 40057  98.3466 162.6837 0011419 154.5787 205.5989 14.78446397404098
METEOR-M 2              
1 40069U 14037A   21361.90204850 -.00000020  00000+0  98653-5 0  9993
2 40069  98.4448  22.4239 0006881  98.8397 261.3556 14.20693902387504
DX1                     
1 40071U 14037C   21361.81139074  .00000588  00000+0  82255-4 0  9999
2 40071  98.4291 216.7793 0009017 141.0908 219.0953 14.81608960403922
UKUBE-1                 
1 40074U 14037F   21361.60459246  .00001410  00000+0  17320-3 0  9990
2 40074  98.4033 228.1053 0005085 113.8058 246.3707 14.84795873404563
FIREBIRD 3              
1 40377U 15003B   21361.46823373  .00013444  00000+0  46019-3 0  9997
2 40377  99.1130 183.7153 0111230 245.1728 113.7904 15.24607672382177
FIREBIRD 4              
1 40378U 15003C   21361.76543113  .00013069  00000+0  44646-3 0  9999
2 40378  99.1134 184.2520 0111212 243.8916 115.0839 15.24681554382229
GRIFEX                  
1 40379U 15003D   21361.70686019  .00008406  00000+0  32614-3 0  9998
2 40379  99.1143 171.7705 0123311 281.5121  77.2284 15.19611821381514
CP10 (EXOCUBE)          
1 40380U 15003E   21361.88082091  .00006557  00000+0  27101-3 0  9999
2 40380  99.1173 165.5867 0129600 302.4190  56.4555 15.17051996381121
DEORBITSAIL             
1 40719U 15032E   21361.62018556  .00001583  00000+0  22773-3 0  9998
2 40719  97.8037 240.5334 0015477 197.7831 162.2840 14.77673604348506
NUDT-PHONESAT           
1 40900U 15049B   21361.83704743  .00013725  00000+0  49188-3 0  9991
2 40900  97.4127  14.8698 0011420 167.2900 275.8705 15.28790990348340
XW-2A                   
1 40903U 15049E   21361.80802162  .00011692  00000+0  22848-3 0  9990
2 40903  97.2101  55.6461 0012607  35.8002  75.7248 15.47523528352677
XW-2C                   
1 40906U 15049H   21361.82467315  .00003600  00000+0  18329-3 0  9991
2 40906  97.4914   1.8880 0012928 232.1421 205.9201 15.17378811346887
XW-2D                   
1 40907U 15049J   21361.79132172  .00004254  00000+0  21353-3 0  9995
2 40907  97.4899   1.7261 0012411 228.3701 306.6358 15.17786826346912
LILACSAT-2              
1 40908U 15049K   21361.78927359  .00002406  00000+0  13285-3 0  9996
2 40908  97.5119 359.2749 0013969 249.3762 188.6677 15.14815929346499
XW-2E                   
1 40909U 15049L   21361.80749947  .00006276  00000+0  28894-3 0  9996
2 40909  97.4672   5.9935 0011922 208.7243 324.4806 15.20605446347308
XW-2F                   
1 40910U 15049M   21361.79285060  .00006239  00000+0  29142-3 0  9993
2 40910  97.4745   5.0786 0012864 210.0951 236.0733 15.20099805347082
XW-2B                   
1 40911U 15049N   21361.78885688  .00004318  00000+0  21725-3 0  9990
2 40911  97.4895   2.3731 0012251 229.1212 216.9057 15.17696150346807
KAITUO 1B               
1 40912U 15049P   21361.80532323  .00006858  00000+0  29582-3 0  9999
2 40912  97.4429   9.4688 0013732 178.1782 356.7030 15.22778375347609
TIANWANG 1A (TW-1A)     
1 40928U 15051D   21361.89756542  .00018128  00000+0  33176-3 0  9996
2 40928  97.0614  22.3667 0007046 313.2283 130.6488 15.49368969351602
LAPAN-A2                
1 40931U 15052B   21361.70597798  .00001038  00000+0  55214-4 0  9997
2 40931   6.0011 314.0660 0014267 259.6157 100.2868 14.76716047337913
LQSAT                   
1 40958U 15057A   21361.91435438  .00000252  00000+0  46329-4 0  9990
2 40958  97.7773  50.5787 0018704 149.5491 210.6800 14.73231925334737
ATHENOXAT 1             
1 41168U 15077C   21361.86643519  .00009889  00000+0  44860-3 0  9993
2 41168  14.9869 277.8529 0010416 353.8755  55.1818 15.17052704334186
GALASSIA                
1 41170U 15077E   21360.04680596  .00007995  00000+0  35570-3 0  9995
2 41170  14.9891 281.6299 0011612 358.1115   1.9162 15.17077786333826
VELOX-II                
1 41171U 15077F   21361.15201656  .00005126  00000+0  24130-3 0  9999
2 41171  14.9927 338.7232 0008408 229.0166 130.9428 15.13395876333455
CHUBUSAT-2              
1 41338U 16012B   21361.69911248  .00001538  00000+0  11155-3 0  9994
2 41338  31.0041  36.9037 0013569 249.3408 110.5773 15.00757476321655
CHUBUSAT-3              
1 41339U 16012C   21361.77063065  .00001556  00000+0  11258-3 0  9993
2 41339  31.0119  33.4924 0013510 258.0732 101.8390 15.00887353321669
HORYU-4                 
1 41340U 16012D   21361.73333939  .00002572  00000+0  18358-3 0  9998
2 41340  31.0063  14.7853 0013626 292.7298  67.1898 15.02272698321874
